{
    "links": {
        "self": "http://www.neowsapp.com/rest/v1/neo/3762122?api_key=iIulBulltgU6a56xZRHN4H3l9WmuAYTsLGpBGhQ2"
    },
    "id": "3762122",
    "neo_reference_id": "3762122",
    "name": "(2016 UV41)",
    "designation": "2016 UV41",
    "nasa_jpl_url": "http://ssd.jpl.nasa.gov/sbdb.cgi?sstr=3762122",
    "absolute_magnitude_h": 23.8,
    "estimated_diameter": {
        "kilometers": {
            "estimated_diameter_min": 0.046190746,
            "estimated_diameter_max": 0.1032856481
        },
        "meters": {
            "estimated_diameter_min": 46.1907460282,
            "estimated_diameter_max": 103.2856480504
        },
        "miles": {
            "estimated_diameter_min": 0.0287015901,
            "estimated_diameter_max": 0.0641787064
        },
        "feet": {
            "estimated_diameter_min": 151.544447199,
            "estimated_diameter_max": 338.8636855496
        }
    },
    "is_potentially_hazardous_asteroid": false,
    "close_approach_data": [
        {
            "close_approach_date": "2009-09-24",
            "close_approach_date_full": "2009-Sep-24 13:28",
            "epoch_date_close_approach": 1253798880000,
            "relative_velocity": {
                "kilometers_per_second": "5.9099756311",
                "kilometers_per_hour": "21275.9122720024",
                "miles_per_hour": "13220.024489234"
            },
            "miss_distance": {
                "astronomical": "0.2005536436",
                "lunar": "78.0153673604",
                "kilometers": "30002397.903299132",
                "miles": "18642625.5870747416"
            },
            "orbiting_body": "Earth"
        },
        {
            "close_approach_date": "2016-09-26",
            "close_approach_date_full": "2016-Sep-26 15:53",
            "epoch_date_close_approach": 1474905180000,
            "relative_velocity": {
                "kilometers_per_second": "6.3711056821",
                "kilometers_per_hour": "22935.980455615",
                "miles_per_hour": "14251.5263003236"
            },
            "miss_distance": {
                "astronomical": "0.1405220694",
                "lunar": "54.6630849966",
                "kilometers": "21021802.270232178",
                "miles": "13062342.2218649364"
            },
            "orbiting_body": "Earth"
        }
    ],
    "orbital_data": {
        "orbit_id": "3",
        "orbit_determination_date": "2017-04-06 08:22:42",
        "first_observation_date": "2016-10-26",
        "last_observation_date": "2016-11-05",
        "data_arc_in_days": 10,
        "observations_used": 19,
        "orbit_uncertainty": "8",
        "minimum_orbit_intersection": ".13957",
        "jupiter_tisserand_invariant": "4.021",
        "epoch_osculation": "2457688.5",
        "eccentricity": ".3613687580036617",
        "semi_major_axis": "1.763229365227111",
        "inclination": "9.81890631043586",
        "ascending_node_longitude": "20.50012211796819",
        "orbital_period": "855.1880861611681",
        "perihelion_distance": "1.126053359439405",
        "perihelion_argument": "332.1270290722599",
        "aphelion_distance": "2.400405371014817",
        "perihelion_time": "2457647.644095864928",
        "mean_anomaly": "17.19870251543008",
        "mean_motion": ".4209600271865278",
        "equinox": "J2000",
        "orbit_class": {
            "orbit_class_type": "AMO",
            "orbit_class_description": "Near-Earth asteroid orbits similar to that of 1221 Amor",
            "orbit_class_range": "1.017 AU < q (perihelion) < 1.3 AU"
        }
    },
    "is_sentry_object": false
}